IRIDIUM 57 [-]          
1 25273U 98019B   23263.46618946  .00000611  00000+0  20812-3 0  9999
2 25273  86.3950  51.4457 0002089  91.9077 268.2359 14.34900138333591
IRIDIUM 63 [-]          
1 25286U 98021B   23263.30937512  .00000643  00000+0  21722-3 0  9998
2 25286  86.4043 348.4788 0002196  98.0893 262.0552 14.35410151332596
IRIDIUM 69 [-]          
1 25319U 98026A   23263.54067574  .00000949  00000+0  29796-3 0  9996
2 25319  86.4047   3.5374 0001660  23.5472 336.5802 14.39566235331579
IRIDIUM 71 [-]          
1 25320U 98026B   23263.32373710  .00000801  00000+0  24864-3 0  9994
2 25320  86.4040 358.4702 0003526  58.8961 301.2583 14.39907089332053
IRIDIUM 73 [-]          
1 25344U 98032C   23263.56009080  .00000729  00000+0  18309-3 0  9995
2 25344  86.4421 316.2627 0002042  75.5024 284.6407 14.50024310338402
IRIDIUM 82 [-]          
1 25467U 98051A   23263.46294498  .00018479  00000+0  10985-2 0  9992
2 25467  86.3940  52.9586 0150177 129.0326 232.4388 15.02058883327748
IRIDIUM 2 [-]           
1 25527U 98066A   23263.57983329  .00035254  00000+0  88404-3 0  9997
2 25527  85.5170 113.5837 0003521 304.7218  55.3702 15.39876347365822
